XRISM                   
1 57800U 23137A   23355.56078083  .00006631  00000+0  52791-3 0  9993
2 57800  31.0046  67.5963 0010120 238.0989 121.8661 14.98973866 15849
